ONEWEB-0501             
1 54119U 22138G   23294.54521440  .00000009  00000+0 -92519-5 0  9991
2 54119  87.9192 137.9671 0002095  67.7514 292.3841 13.19724379 48915
ONEWEB-0502             
1 54120U 22138H   23294.30353298 -.00000107  00000+0 -30034-3 0  9993
2 54120  87.9194 138.0077 0002006  74.3800 285.7554 13.19725425 48904
ONEWEB-0503             
1 54121U 22138J   23294.51993153  .00000082  00000+0  17220-3 0  9999
2 54121  87.9192 137.9724 0001905  94.0113 266.1238 13.19726431 48925
ONEWEB-0504             
1 54122U 22138K   23294.50728880 -.00000249  00000+0 -65311-3 0  9993
2 54122  87.9195 137.9752 0002112  80.0396 280.0975 13.19724646 48939
ONEWEB-0505             
1 54123U 22138L   23294.12504475 -.00000097  00000+0 -27574-3 0  9994
2 54123  87.9192 138.0489 0002161  82.8765 277.2613 13.19725465 48869
ONEWEB-0506             
1 54124U 22138M   23294.32722615 -.00000263  00000+0 -68977-3 0  9992
2 54124  87.9192 138.0060 0002014  70.8491 289.2860 13.19727459 48889
ONEWEB-0507             
1 54125U 22138N   23294.49934619  .00007796  00000+0  19405-1 0  9996
2 54125  87.9141 137.9813 0003945  72.3453 287.8110 13.19788052 48953
ONEWEB-0508             
1 54126U 22138P   23294.26879474  .00000114  00000+0  25326-3 0  9997
2 54126  87.9189 138.0247 0002092  67.1938 292.9416 13.19726930 48909
